{
  "type": "FeatureCollection",
  "features": [
    {
      "type": "Feature",
      "properties": {
        "norad_id": 37717,
        "name": "FENGYUN 1C DEB",
        "group": "fengyun-1c-debris",
        "lat": 58.286929208412786,
        "lon": -64.95388780390701,
        "alt_km": 541.3912663654082,
        "timestamp": "2025-12-18T23:35:49.350021+00:00",
        "meta_object_name": "FENGYUN 1C DEB",
        "meta_object_id": "1999-025EMJ",
        "meta_epoch": "2025-12-15T15:45:42.031008",
        "meta_mean_motion": 14.9413508,
        "meta_eccentricity": 0.00589425,
        "meta_inclination": 98.7251,
        "meta_ra_of_asc_node": 305.744,
        "meta_arg_of_pericenter": 93.6212,
        "meta_mean_anomaly": 83.4535,
        "meta_ephemeris_type": 0,
        "meta_classification_type": "U",
        "meta_norad_cat_id": 37717,
        "meta_element_set_no": 999,
        "meta_rev_at_epoch": 89441,
        "meta_bstar": 0.0015918464,
        "meta_mean_motion_dot": 0.00017586,
        "meta_mean_motion_ddot": 0,
        "tle_line1": "1 37717U 99025EMJ 25349.65673647  .00017586  00000+0  15918-2 0  9999",
        "tle_line2": "2 37717  98.7251 305.7440 0058942  93.6212  83.4535 14.94135080894412"
      },
      "geometry": {
        "type": "Point",
        "coordinates": [
          -64.95388780390701,
          58.286929208412786
        ]
      }
    },
    {
      "type": "Feature",
      "properties": {
        "norad_id": 37902,
        "name": "FENGYUN 1C DEB",
        "group": "fengyun-1c-debris",
        "lat": 33.88480564933155,
        "lon": -153.4169360365212,
        "alt_km": 1108.945942900873,
        "timestamp": "2025-12-18T23:35:49.350031+00:00",
        "meta_object_name": "FENGYUN 1C DEB",
        "meta_object_id": "1999-025ENB",
        "meta_epoch": "2025-12-07T14:03:14.833440",
        "meta_mean_motion": 13.52640367,
        "meta_eccentricity": 0.03237878,
        "meta_inclination": 98.6837,
        "meta_ra_of_asc_node": 202.4677,
        "meta_arg_of_pericenter": 320.2654,
        "meta_mean_anomaly": 37.5166,
        "meta_ephemeris_type": 0,
        "meta_classification_type": "U",
        "meta_norad_cat_id": 37902,
        "meta_element_set_no": 999,
        "meta_rev_at_epoch": 62907,
        "meta_bstar": 0.003775391,
        "meta_mean_motion_dot": 3.447e-05,
        "meta_mean_motion_ddot": 0,
        "tle_line1": "1 37902U 99025ENB 25341.58558835  .00003447  00000+0  37754-2 0  9993",
        "tle_line2": "2 37902  98.6837 202.4677 0323787 320.2654  37.5166 13.52640367629073"
      },
      "geometry": {
        "type": "Point",
        "coordinates": [
          -153.4169360365212,
          33.88480564933155
        ]
      }
    },
    {
      "type": "Feature",
      "properties": {
        "norad_id": 37906,
        "name": "FENGYUN 1C DEB",
        "group": "fengyun-1c-debris",
        "lat": -64.12893465875293,
        "lon": 54.3619600715497,
        "alt_km": 941.3437294494697,
        "timestamp": "2025-12-18T23:35:49.350041+00:00",
        "meta_object_name": "FENGYUN 1C DEB",
        "meta_object_id": "1999-025ENF",
        "meta_epoch": "2025-12-17T09:43:38.923104",
        "meta_mean_motion": 13.80796617,
        "meta_eccentricity": 0.01626691,
        "meta_inclination": 99.5992,
        "meta_ra_of_asc_node": 32.3357,
        "meta_arg_of_pericenter": 16.2438,
        "meta_mean_anomaly": 0.3742,
        "meta_ephemeris_type": 0,
        "meta_classification_type": "U",
        "meta_norad_cat_id": 37906,
        "meta_element_set_no": 999,
        "meta_rev_at_epoch": 59520,
        "meta_bstar": 0.00065282289,
        "meta_mean_motion_dot": 7.13e-06,
        "meta_mean_motion_ddot": 0,
        "tle_line1": "1 37906U 99025ENF 25351.40531161  .00000713  00000+0  65282-3 0  9993",
        "tle_line2": "2 37906  99.5992  32.3357 0162669  16.2438   0.3742 13.80796617595202"
      },
      "geometry": {
        "type": "Point",
        "coordinates": [
          54.3619600715497,
          -64.12893465875293
        ]
      }
    },
    {
      "type": "Feature",
      "properties": {
        "norad_id": 37907,
        "name": "FENGYUN 1C DEB",
        "group": "fengyun-1c-debris",
        "lat": 59.965170751722354,
        "lon": -57.78219323289023,
        "alt_km": 777.692356987046,
        "timestamp": "2025-12-18T23:35:49.350051+00:00",
        "meta_object_name": "FENGYUN 1C DEB",
        "meta_object_id": "1999-025ENG",
        "meta_epoch": "2025-12-18T02:47:52.898208",
        "meta_mean_motion": 14.23621509,
        "meta_eccentricity": 0.00633304,
        "meta_inclination": 99.0798,
        "meta_ra_of_asc_node": 105.2668,
        "meta_arg_of_pericenter": 171.0108,
        "meta_mean_anomaly": 189.2219,
        "meta_ephemeris_type": 0,
        "meta_classification_type": "U",
        "meta_norad_cat_id": 37907,
        "meta_element_set_no": 999,
        "meta_rev_at_epoch": 83349,
        "meta_bstar": 0.0022047538,
        "meta_mean_motion_dot": 5.087e-05,
        "meta_mean_motion_ddot": 0,
        "tle_line1": "1 37907U 99025ENG 25352.11658447  .00005087  00000+0  22048-2 0  9991",
        "tle_line2": "2 37907  99.0798 105.2668 0063330 171.0108 189.2219 14.23621509833493"
      },
      "geometry": {
        "type": "Point",
        "coordinates": [
          -57.78219323289023,
          59.965170751722354
        ]
      }
    },
    {
      "type": "Feature",
      "properties": {
        "norad_id": 37908,
        "name": "FENGYUN 1C DEB",
        "group": "fengyun-1c-debris",
        "lat": -8.774336004987132,
        "lon": -156.1604461660792,
        "alt_km": 738.7661845011262,
        "timestamp": "2025-12-18T23:35:49.350062+00:00",
        "meta_object_name": "FENGYUN 1C DEB",
        "meta_object_id": "1999-025ENH",
        "meta_epoch": "2025-12-06T19:52:32.356992",
        "meta_mean_motion": 14.36573191,
        "meta_eccentricity": 0.00744593,
        "meta_inclination": 99.1512,
        "meta_ra_of_asc_node": 12.3562,
        "meta_arg_of_pericenter": 174.8209,
        "meta_mean_anomaly": 185.3763,
        "meta_ephemeris_type": 0,
        "meta_classification_type": "U",
        "meta_norad_cat_id": 37908,
        "meta_element_set_no": 999,
        "meta_rev_at_epoch": 63976,
        "meta_bstar": 0.0009644739,
        "meta_mean_motion_dot": 2.877e-05,
        "meta_mean_motion_ddot": 0,
        "tle_line1": "1 37908U 99025ENH 25340.82815228  .00002877  00000+0  96447-3 0  9998",
        "tle_line2": "2 37908  99.1512  12.3562 0074459 174.8209 185.3763 14.36573191639769"
      },
      "geometry": {
        "type": "Point",
        "coordinates": [
          -156.1604461660792,
          -8.774336004987132
        ]
      }
    },
    {
      "type": "Feature",
      "properties": {
        "norad_id": 37912,
        "name": "FENGYUN 1C DEB",
        "group": "fengyun-1c-debris",
        "lat": -29.372998757205178,
        "lon": -32.97156183296227,
        "alt_km": 839.1803795150663,
        "timestamp": "2025-12-18T23:35:49.350072+00:00",
        "meta_object_name": "FENGYUN 1C DEB",
        "meta_object_id": "1999-025ENM",
        "meta_epoch": "2025-12-17T20:31:02.815680",
        "meta_mean_motion": 14.1153782,
        "meta_eccentricity": 0.00921589,
        "meta_inclination": 99.2285,
        "meta_ra_of_asc_node": 320.6183,
        "meta_arg_of_pericenter": 45.8497,
        "meta_mean_anomaly": 315.0203,
        "meta_ephemeris_type": 0,
        "meta_classification_type": "U",
        "meta_norad_cat_id": 37912,
        "meta_element_set_no": 999,
        "meta_rev_at_epoch": 77360,
        "meta_bstar": 0.0021693094,
        "meta_mean_motion_dot": 4.053e-05,
        "meta_mean_motion_ddot": 0,
        "tle_line1": "1 37912U 99025ENM 25351.85489370  .00004053  00000+0  21693-2 0  9991",
        "tle_line2": "2 37912  99.2285 320.6183 0092158  45.8497 315.0203 14.11537820773603"
      },
      "geometry": {
        "type": "Point",
        "coordinates": [
          -32.97156183296227,
          -29.372998757205178
        ]
      }
    },
    {
      "type": "Feature",
      "properties": {
        "norad_id": 37918,
        "name": "FENGYUN 1C DEB",
        "group": "fengyun-1c-debris",
        "lat": 16.773048742717805,
        "lon": 125.4666428472879,
        "alt_km": 785.7669897794485,
        "timestamp": "2025-12-18T23:35:49.350083+00:00",
        "meta_object_name": "FENGYUN 1C DEB",
        "meta_object_id": "1999-025ENT",
        "meta_epoch": "2025-12-16T15:35:18.492576",
        "meta_mean_motion": 14.34401089,
        "meta_eccentricity": 0.00549656,
        "meta_inclination": 99.028,
        "meta_ra_of_asc_node": 300.2835,
        "meta_arg_of_pericenter": 272.0908,
        "meta_mean_anomaly": 87.3982,
        "meta_ephemeris_type": 0,
        "meta_classification_type": "U",
        "meta_norad_cat_id": 37918,
        "meta_element_set_no": 999,
        "meta_rev_at_epoch": 3598,
        "meta_bstar": 0.00054462571,
        "meta_mean_motion_dot": 1.511e-05,
        "meta_mean_motion_ddot": 0,
        "tle_line1": "1 37918U 99025ENT 25350.64951959  .00001511  00000+0  54463-3 0  9998",
        "tle_line2": "2 37918  99.0280 300.2835 0054965 272.0908  87.3982 14.34401089 35982"
      },
      "geometry": {
        "type": "Point",
        "coordinates": [
          125.4666428472879,
          16.773048742717805
        ]
      }
    }
  ]
}